<?xml version="1.0" encoding="UTF-8"?>
<kml xmlns="http://www.opengis.net/kml/2.2">
<Document>
<Placemark>
<name>EIDPG</name>
<LineString>
<coordinates>
2.738888888888889,39.55166666666666,0 2.0783333333333336,41.29694444444444,0
</coordinates>
</LineString>
</Placemark>
<Placemark>
<name>EIFOG</name>
<LineString>
<coordinates>
-5.898888888888888,37.418055555555554,0 2.0783333333333336,41.29694444444444,0
</coordinates>
</LineString>
</Placemark>
<Placemark>
<name>EIENM</name>
<LineString>
<coordinates>
13.500555555555556,52.36222222222222,0 2.0783333333333336,41.29694444444444,0
</coordinates>
</LineString>
</Placemark>
<Placemark>
<name>EIEKL</name>
<LineString>
<coordinates>
-8.678055555555554,41.23555555555556,0 2.0783333333333336,41.29694444444444,0
</coordinates>
</LineString>
</Placemark>
<Placemark>
<name>EIFIY</name>
<LineString>
<coordinates>
1.3730555555555557,38.87277777777778,0 2.0783333333333336,41.29694444444444,0
</coordinates>
</LineString>
</Placemark>
<Placemark>
<name>EIFRF</name>
<LineString>
<coordinates>
-6.27,53.421388888888885,0 2.0783333333333336,41.29694444444444,0
</coordinates>
</LineString>
</Placemark>
<Placemark>
<name>EIDAM</name>
<LineString>
<coordinates>
9.700277777777776,45.66888888888889,0 2.0783333333333336,41.29694444444444,0
</coordinates>
</LineString>
</Placemark>
<Placemark>
<name>EIEBK</name>
<LineString>
<coordinates>
-2.275,53.35388888888889,0 2.0783333333333336,41.29694444444444,0
</coordinates>
</LineString>
</Placemark>
<Placemark>
<name>EIDPM</name>
<LineString>
<coordinates>
-3.3725,55.95,0 2.0783333333333336,41.29694444444444,0
</coordinates>
</LineString>
</Placemark>
<Placemark>
<name>EIEFW</name>
<LineString>
<coordinates>
-8.415277777777778,42.896388888888886,0 2.0783333333333336,41.29694444444444,0
</coordinates>
</LineString>
</Placemark>
<Placemark>
<name>EIDHP</name>
<LineString>
<coordinates>
-1.7480555555555557,52.45388888888889,0 2.0783333333333336,41.29694444444444,0
</coordinates>
</LineString>
</Placemark>
<Placemark>
<name>EIDWK</name>
<LineString>
<coordinates>
4.484444444444445,50.90138888888889,0 2.0783333333333336,41.29694444444444,0
</coordinates>
</LineString>
</Placemark>
<Placemark>
<name>EIENO</name>
<LineString>
<coordinates>
2.112777777777778,49.45444444444445,0 2.0783333333333336,41.29694444444444,0
</coordinates>
</LineString>
</Placemark>
<Placemark>
<name>EIDAE</name>
<LineString>
<coordinates>
12.238888888888889,41.80027777777777,0 2.0783333333333336,41.29694444444444,0
</coordinates>
</LineString>
</Placemark>
<Placemark>
<name>EIDCJ</name>
<LineString>
<coordinates>
0.23500000000000001,51.885,0 2.0783333333333336,41.29694444444444,0
</coordinates>
</LineString>
</Placemark>
<Placemark>
<name>EIDHX</name>
<LineString>
<coordinates>
11.296944444444444,44.530833333333334,0 2.0783333333333336,41.29694444444444,0
</coordinates>
</LineString>
</Placemark>
<Placemark>
<name>EIDHG</name>
<LineString>
<coordinates>
9.988333333333333,53.63027777777778,0 2.0783333333333336,41.29694444444444,0
</coordinates>
</LineString>
</Placemark>
<Placemark>
<name>EIEBA</name>
<LineString>
<coordinates>
-1.3277777777777777,52.83111111111111,0 2.0783333333333336,41.29694444444444,0
</coordinates>
</LineString>
</Placemark>
<Placemark>
<name>EIENL</name>
<LineString>
<coordinates>
-8.040833333333333,31.608611111111113,0 2.0783333333333336,41.29694444444444,0
</coordinates>
</LineString>
</Placemark>
<Placemark>
<name>EIFRH</name>
<LineString>
<coordinates>
2.738888888888889,39.55166666666666,0 2.0783333333333336,41.29694444444444,0
</coordinates>
</LineString>
</Placemark>
<Placemark>
<name>EIDHT</name>
<LineString>
<coordinates>
25.28777777777778,54.636944444444445,0 2.0783333333333336,41.29694444444444,0
</coordinates>
</LineString>
</Placemark>
<Placemark>
<name>EIFIY</name>
<LineString>
<coordinates>
12.238888888888889,41.80027777777777,0 2.0783333333333336,41.29694444444444,0
</coordinates>
</LineString>
</Placemark>
<Placemark>
<name>EIDAE</name>
<LineString>
<coordinates>
7.649444444444444,45.2025,0 2.0783333333333336,41.29694444444444,0
</coordinates>
</LineString>
</Placemark>
<Placemark>
<name>EIENO</name>
<LineString>
<coordinates>
-4.4991666666666665,36.675,0 2.0783333333333336,41.29694444444444,0
</coordinates>
</LineString>
</Placemark>
<Placemark>
<name>EIDWK</name>
<LineString>
<coordinates>
12.197777777777778,45.65083333333333,0 2.0783333333333336,41.29694444444444,0
</coordinates>
</LineString>
</Placemark>
<Placemark>
<name>EIDAM</name>
<LineString>
<coordinates>
0.23500000000000001,51.885,0 2.0783333333333336,41.29694444444444,0
</coordinates>
</LineString>
</Placemark>
<Placemark>
<name>EIDCJ</name>
<LineString>
<coordinates>
9.700277777777776,45.66888888888889,0 2.0783333333333336,41.29694444444444,0
</coordinates>
</LineString>
</Placemark>
<Placemark>
<name>EIEFW</name>
<LineString>
<coordinates>
4.484444444444445,50.90138888888889,0 2.0783333333333336,41.29694444444444,0
</coordinates>
</LineString>
</Placemark>
<Placemark>
<name>EIDHT</name>
<LineString>
<coordinates>
1.3730555555555557,38.87277777777778,0 2.0783333333333336,41.29694444444444,0
</coordinates>
</LineString>
</Placemark>
<Placemark>
<name>EIEPG</name>
<LineString>
<coordinates>
-2.8497222222222223,53.33361111111111,0 2.0783333333333336,41.29694444444444,0
</coordinates>
</LineString>
</Placemark>
<Placemark>
<name>EIDHG</name>
<LineString>
<coordinates>
12.238888888888889,41.80027777777777,0 2.0783333333333336,41.29694444444444,0
</coordinates>
</LineString>
</Placemark>
<Placemark>
<name>EIFIY</name>
<LineString>
<coordinates>
-4.851944444444444,41.70611111111111,0 2.0783333333333336,41.29694444444444,0
</coordinates>
</LineString>
</Placemark>
<Placemark>
<name>EIDWK</name>
<LineString>
<coordinates>
4.2186111111111115,39.862500000000004,0 2.0783333333333336,41.29694444444444,0
</coordinates>
</LineString>
</Placemark>
<Placemark>
<name>EIDHX</name>
<LineString>
<coordinates>
0.23500000000000001,51.885,0 2.0783333333333336,41.29694444444444,0
</coordinates>
</LineString>
</Placemark>
<Placemark>
<name>EIDHO</name>
<LineString>
<coordinates>
16.90361111111111,58.78861111111111,0 2.0783333333333336,41.29694444444444,0
</coordinates>
</LineString>
</Placemark>
<Placemark>
<name>EIEFN</name>
<LineString>
<coordinates>
4.484444444444445,50.90138888888889,0 2.0783333333333336,41.29694444444444,0
</coordinates>
</LineString>
</Placemark>
<Placemark>
<name>EIDCM</name>
<LineString>
<coordinates>
12.238888888888889,41.80027777777777,0 2.0783333333333336,41.29694444444444,0
</coordinates>
</LineString>
</Placemark>
<Placemark>
<name>EIDAE</name>
<LineString>
<coordinates>
-8.627500000000001,42.22916666666667,0 2.0783333333333336,41.29694444444444,0
</coordinates>
</LineString>
</Placemark>
<Placemark>
<name>EIEFI</name>
<LineString>
<coordinates>
-6.27,53.421388888888885,0 2.0783333333333336,41.29694444444444,0
</coordinates>
</LineString>
</Placemark>
<Placemark>
<name>EIDHB</name>
<LineString>
<coordinates>
-5.898888888888888,37.418055555555554,0 2.0783333333333336,41.29694444444444,0
</coordinates>
</LineString>
</Placemark>
<Placemark>
<name>EIDHH</name>
<LineString>
<coordinates>
-13.605277777777777,28.945555555555554,0 2.0783333333333336,41.29694444444444,0
</coordinates>
</LineString>
</Placemark>
<Placemark>
<name>EIDWA</name>
<LineString>
<coordinates>
-4.594444444444444,55.50944444444445,0 2.0783333333333336,41.29694444444444,0
</coordinates>
</LineString>
</Placemark>
<Placemark>
<name>EIDLH</name>
<LineString>
<coordinates>
-15.386666666666667,27.931944444444447,0 2.0783333333333336,41.29694444444444,0
</coordinates>
</LineString>
</Placemark>
<Placemark>
<name>EIFIN</name>
<LineString>
<coordinates>
-2.275,53.35388888888889,0 2.0783333333333336,41.29694444444444,0
</coordinates>
</LineString>
</Placemark>
<Placemark>
<name>EIENG</name>
<LineString>
<coordinates>
11.296944444444444,44.530833333333334,0 2.0783333333333336,41.29694444444444,0
</coordinates>
</LineString>
</Placemark>
<Placemark>
<name>EIENL</name>
<LineString>
<coordinates>
-6.06,36.74472222222222,0 2.0783333333333336,41.29694444444444,0
</coordinates>
</LineString>
</Placemark>
<Placemark>
<name>EIDLC</name>
<LineString>
<coordinates>
-8.678055555555554,41.23555555555556,0 2.0783333333333336,41.29694444444444,0
</coordinates>
</LineString>
</Placemark>
<Placemark>
<name>EIDPG</name>
<LineString>
<coordinates>
2.738888888888889,39.55166666666666,0 2.0783333333333336,41.29694444444444,0
</coordinates>
</LineString>
</Placemark>
<Placemark>
<name>EIDAM</name>
<LineString>
<coordinates>
-6.27,53.421388888888885,0 2.0783333333333336,41.29694444444444,0
</coordinates>
</LineString>
</Placemark>
<Placemark>
<name>EIENO</name>
<LineString>
<coordinates>
19.261944444444445,47.43944444444444,0 2.0783333333333336,41.29694444444444,0
</coordinates>
</LineString>
</Placemark>
<Placemark>
<name>EIEPG</name>
<LineString>
<coordinates>
2.112777777777778,49.45444444444445,0 2.0783333333333336,41.29694444444444,0
</coordinates>
</LineString>
</Placemark>
<Placemark>
<name>EIDHX</name>
<LineString>
<coordinates>
9.700277777777776,45.66888888888889,0 2.0783333333333336,41.29694444444444,0
</coordinates>
</LineString>
</Placemark>
<Placemark>
<name>EIDAE</name>
<LineString>
<coordinates>
1.3730555555555557,38.87277777777778,0 2.0783333333333336,41.29694444444444,0
</coordinates>
</LineString>
</Placemark>
<Placemark>
<name>EIFIY</name>
<LineString>
<coordinates>
12.197777777777778,45.65083333333333,0 2.0783333333333336,41.29694444444444,0
</coordinates>
</LineString>
</Placemark>
<Placemark>
<name>EIDCJ</name>
<LineString>
<coordinates>
13.500555555555556,52.36222222222222,0 2.0783333333333336,41.29694444444444,0
</coordinates>
</LineString>
</Placemark>
<Placemark>
<name>EIDWK</name>
<LineString>
<coordinates>
12.238888888888889,41.80027777777777,0 2.0783333333333336,41.29694444444444,0
</coordinates>
</LineString>
</Placemark>
<Placemark>
<name>EIDHT</name>
<LineString>
<coordinates>
0.23500000000000001,51.885,0 2.0783333333333336,41.29694444444444,0
</coordinates>
</LineString>
</Placemark>
<Placemark>
<name>EIDHG</name>
<LineString>
<coordinates>
7.142777777777778,50.865833333333335,0 2.0783333333333336,41.29694444444444,0
</coordinates>
</LineString>
</Placemark>
</Document>
</kml>
